[{"OBJECT_NAME":"STARLINK-3359","OBJECT_ID":"2022-005AW","EPOCH":"2026-03-09T21:28:56.948448","MEAN_MOTION":15.09261145,"ECCENTRICITY":0.00017827,"INCLINATION":53.2179,"RA_OF_ASC_NODE":308.3843,"ARG_OF_PERICENTER":106.4627,"MEAN_ANOMALY":253.6561,"EPHEMERIS_TYPE":0,"CLASSIFICATION_TYPE":"U","NORAD_CAT_ID":51148,"ELEMENT_SET_NO":999,"REV_AT_EPOCH":22862,"BSTAR":0.00034573138,"MEAN_MOTION_DOT":5.281e-5,"MEAN_MOTION_DDOT":0},{"OBJECT_NAME":"CZ-6A DEB","OBJECT_ID":"2024-140PS","EPOCH":"2026-03-09T14:06:57.647808","MEAN_MOTION":14.7419151,"ECCENTRICITY":0.0174551,"INCLINATION":88.9937,"RA_OF_ASC_NODE":280.0508,"ARG_OF_PERICENTER":181.2195,"MEAN_ANOMALY":178.8626,"EPHEMERIS_TYPE":0,"CLASSIFICATION_TYPE":"U","NORAD_CAT_ID":61124,"ELEMENT_SET_NO":999,"REV_AT_EPOCH":8308,"BSTAR":0.00056687,"MEAN_MOTION_DOT":4.809e-5,"MEAN_MOTION_DDOT":0}]
